{
  "norad_id": 56232,
  "name": "FENGYUN 3G",
  "history": [
    {
      "epoch": "2026-03-28T21:04:41.955168Z",
      "apogee_km": 411.199824350605,
      "perigee_km": 404.7208657713809,
      "latitude_deg": -4.2274787163887513e-07,
      "longitude_deg": -102.33420534939172,
      "height_km": 405.3900039690528,
      "semi_major_axis_km": 6786.097345060993,
      "eccentricity": 0.00047737,
      "inclination_deg": 49.9934,
      "raan_deg": 40.133,
      "arg_perigee_deg": 15.0038,
      "mean_anomaly_deg": 345.107,
      "mean_motion_rev_day": 15.53004214
    },
    {
      "epoch": "2026-03-29T03:15:18.478656Z",
      "apogee_km": 411.12210958382457,
      "perigee_km": 404.68487157446,
      "latitude_deg": -1.230016576225216e-05,
      "longitude_deg": 163.43303090090342,
      "height_km": 405.36641842455134,
      "semi_major_axis_km": 6786.040490579142,
      "eccentricity": 0.0004743,
      "inclination_deg": 49.9937,
      "raan_deg": 38.8061,
      "arg_perigee_deg": 15.8838,
      "mean_anomaly_deg": 344.2277,
      "mean_motion_rev_day": 15.53023731
    },
    {
      "epoch": "2026-03-30T05:30:20.276640Z",
      "apogee_km": 410.78726607334465,
      "perigee_km": 404.4873532042757,
      "latitude_deg": -1.7735648461583778e-06,
      "longitude_deg": 122.957579086339,
      "height_km": 405.24569086426544,
      "semi_major_axis_km": 6785.77430963881,
      "eccentricity": 0.0004642,
      "inclination_deg": 49.9943,
      "raan_deg": 33.1662,
      "arg_perigee_deg": 20.5294,
      "mean_anomaly_deg": 339.5859,
      "mean_motion_rev_day": 15.53115111
    },
    {
      "epoch": "2026-03-30T05:30:20.286144Z",
      "apogee_km": 410.7895956966622,
      "perigee_km": 404.48995197090517,
      "latitude_deg": -1.1314197894484879e-05,
      "longitude_deg": 122.95753141543511,
      "height_km": 405.24857399800595,
      "semi_major_axis_km": 6785.776773833783,
      "eccentricity": 0.00046418,
      "inclination_deg": 49.9943,
      "raan_deg": 33.1662,
      "arg_perigee_deg": 20.5446,
      "mean_anomaly_deg": 339.5707,
      "mean_motion_rev_day": 15.53114265
    },
    {
      "epoch": "2026-03-30T13:13:33.915936Z",
      "apogee_km": 410.68523741956324,
      "perigee_km": 404.4444274442758,
      "latitude_deg": 4.603545354137491e-06,
      "longitude_deg": 5.174986545222672,
      "height_km": 405.2299088113104,
      "semi_major_axis_km": 6785.70183243192,
      "eccentricity": 0.00045985,
      "inclination_deg": 49.9944,
      "raan_deg": 31.5075,
      "arg_perigee_deg": 22.0045,
      "mean_anomaly_deg": 338.1119,
      "mean_motion_rev_day": 15.53139994
    },
    {
      "epoch": "2026-03-30T22:29:25.724256Z",
      "apogee_km": 410.59319574569145,
      "perigee_km": 404.375802191048,
      "latitude_deg": -1.6343173106898e-05,
      "longitude_deg": -136.1617735174954,
      "height_km": 405.2003364523057,
      "semi_major_axis_km": 6785.621498968369,
      "eccentricity": 0.00045813,
      "inclination_deg": 49.9942,
      "raan_deg": 29.5171,
      "arg_perigee_deg": 23.9001,
      "mean_anomaly_deg": 336.2178,
      "mean_motion_rev_day": 15.53167575
    },
    {
      "epoch": "2026-03-31T20:06:24.189408Z",
      "apogee_km": 410.31183786161,
      "perigee_km": 404.2755187301991,
      "latitude_deg": -4.905855012249285e-05,
      "longitude_deg": -105.93785181786433,
      "height_km": 405.18569350876277,
      "semi_major_axis_km": 6785.430678295905,
      "eccentricity": 0.0004448,
      "inclination_deg": 49.9941,
      "raan_deg": 24.8724,
      "arg_perigee_deg": 27.9694,
      "mean_anomaly_deg": 332.1511,
      "mean_motion_rev_day": 15.53233093
    },
    {
      "epoch": "2026-04-01T20:48:35.718912Z",
      "apogee_km": 410.03294490045755,
      "perigee_km": 404.136587185767,
      "latitude_deg": -6.628044625870308e-05,
      "longitude_deg": -122.80862897611775,
      "height_km": 405.1359277526285,
      "semi_major_axis_km": 6785.221766043112,
      "eccentricity": 0.0004345,
      "inclination_deg": 49.9946,
      "raan_deg": 19.5642,
      "arg_perigee_deg": 31.7769,
      "mean_anomaly_deg": 328.3459,
      "mean_motion_rev_day": 15.53304828
    },
    {
      "epoch": "2026-04-02T19:58:04.797408Z",
      "apogee_km": 409.726473040635,
      "perigee_km": 403.9402503161946,
      "latitude_deg": -2.2481285665168838e-05,
      "longitude_deg": -116.10762051989033,
      "height_km": 405.0514301194391,
      "semi_major_axis_km": 6784.9703616784145,
      "eccentricity": 0.0004264,
      "inclination_deg": 49.9948,
      "raan_deg": 14.5874,
      "arg_perigee_deg": 36.0512,
      "mean_anomaly_deg": 324.0742,
      "mean_motion_rev_day": 15.53391161
    }
  ]
}